{"type": "FeatureCollection", "features": [ {"type": "Feature", "properties": {"norad_id": 66579, "name": "STARLINK-35868", "group": "last-30-days", "lat": 40.14064838293986, "lon": -110.13040456051951, "alt_km": 410.101272477752, "timestamp": "2025-12-10T09:57:43.489506+00:00", "meta": {"OBJECT_NAME": "STARLINK-35868", "OBJECT_ID": "2025-268Y", "EPOCH": "2025-12-10T04:00:01.998720", "MEAN_MOTION": 15.5063126, "ECCENTRICITY": 0.0002015, "INCLINATION": 43.0005, "RA_OF_ASC_NODE": 136.1395, "ARG_OF_PERICENTER": 268.1151, "MEAN_ANOMALY": 252.6143, "EPHEMERIS_TYPE": 0, "CLASSIFICATION_TYPE": "U", "NORAD_CAT_ID": 66579, "ELEMENT_SET_NO": 999, "REV_AT_EPOCH": 425, "BSTAR": -0.0034863, "MEAN_MOTION_DOT": -0.00200113, "MEAN_MOTION_DDOT": 0}, "tle": {"line1": "1 66579U 25268Y   25344.16668980 -.00200113  00000+0 -34863-2 0  9992", "line2": "2 66579  43.0005 136.1395 0002015 268.1151 252.6143 15.50631260  4250"}}, "geometry": {"type": "Point", "coordinates": [-110.13040456051951, 40.14064838293986]}}, {"type": "Feature", "properties": {"norad_id": 66580, "name": "STARLINK-35872", "group": "last-30-days", "lat": 39.56814877539418, "lon": -107.78473636736439, "alt_km": 410.0692394058633, "timestamp": "2025-12-10T09:57:43.489516+00:00", "meta": {"OBJECT_NAME": "STARLINK-35872", "OBJECT_ID": "2025-268Z", "EPOCH": "2025-12-10T04:00:01.998720", "MEAN_MOTION": 15.50612114, "ECCENTRICITY": 0.0001907, "INCLINATION": 43.0008, "RA_OF_ASC_NODE": 136.1357, "ARG_OF_PERICENTER": 269.7201, "MEAN_ANOMALY": 252.9008, "EPHEMERIS_TYPE": 0, "CLASSIFICATION_TYPE": "U", "NORAD_CAT_ID": 66580, "ELEMENT_SET_NO": 999, "REV_AT_EPOCH": 425, "BSTAR": -0.0023311, "MEAN_MOTION_DOT": -0.0013493, "MEAN_MOTION_DDOT": 0}, "tle": {"line1": "1 66580U 25268Z   25344.16668980 -.00134930  00000+0 -23311-2 0  9993", "line2": "2 66580  43.0008 136.1357 0001907 269.7201 252.9008 15.50612114  4255"}}, "geometry": {"type": "Point", "coordinates": [-107.78473636736439, 39.56814877539418]}}, {"type": "Feature", "properties": {"norad_id": 66581, "name": "STARLINK-35744", "group": "last-30-days", "lat": 38.913367994754076, "lon": -105.35632261978814, "alt_km": 409.96955099158004, "timestamp": "2025-12-10T09:57:43.489529+00:00", "meta": {"OBJECT_NAME": "STARLINK-35744", "OBJECT_ID": "2025-268AA", "EPOCH": "2025-12-10T04:00:01.998720", "MEAN_MOTION": 15.50785989, "ECCENTRICITY": 0.0001709, "INCLINATION": 43.0005, "RA_OF_ASC_NODE": 136.1298, "ARG_OF_PERICENTER": 271.7665, "MEAN_ANOMALY": 252.7528, "EPHEMERIS_TYPE": 0, "CLASSIFICATION_TYPE": "U", "NORAD_CAT_ID": 66581, "ELEMENT_SET_NO": 999, "REV_AT_EPOCH": 420, "BSTAR": -0.0070317, "MEAN_MOTION_DOT": -0.00395629, "MEAN_MOTION_DDOT": 0}, "tle": {"line1": "1 66581U 25268AA  25344.16668980 -.00395629  00000+0 -70317-2 0  9996", "line2": "2 66581  43.0005 136.1298 0001709 271.7665 252.7528 15.50785989  4205"}}, "geometry": {"type": "Point", "coordinates": [-105.35632261978814, 38.913367994754076]}}, {"type": "Feature", "properties": {"norad_id": 66582, "name": "STARLINK-35746", "group": "last-30-days", "lat": 38.265468829773944, "lon": -103.15545303236865, "alt_km": 410.19767168236467, "timestamp": "2025-12-10T09:57:43.489541+00:00", "meta": {"OBJECT_NAME": "STARLINK-35746", "OBJECT_ID": "2025-268AB", "EPOCH": "2025-12-10T04:00:01.998720", "MEAN_MOTION": 15.50652987, "ECCENTRICITY": 0.0001896, "INCLINATION": 43.0006, "RA_OF_ASC_NODE": 136.1249, "ARG_OF_PERICENTER": 271.7822, "MEAN_ANOMALY": 254.6444, "EPHEMERIS_TYPE": 0, "CLASSIFICATION_TYPE": "U", "NORAD_CAT_ID": 66582, "ELEMENT_SET_NO": 999, "REV_AT_EPOCH": 425, "BSTAR": -0.003034, "MEAN_MOTION_DOT": -0.00174883, "MEAN_MOTION_DDOT": 0}, "tle": {"line1": "1 66582U 25268AB  25344.16668980 -.00174883  00000+0 -30340-2 0  9996", "line2": "2 66582  43.0006 136.1249 0001896 271.7822 254.6444 15.50652987  4259"}}, "geometry": {"type": "Point", "coordinates": [-103.15545303236865, 38.265468829773944]}}, {"type": "Feature", "properties": {"norad_id": 66583, "name": "STARLINK-35941", "group": "last-30-days", "lat": 37.54533931310243, "lon": -100.89952664559252, "alt_km": 410.29688710458595, "timestamp": "2025-12-10T09:57:43.489559+00:00", "meta": {"OBJECT_NAME": "STARLINK-35941", "OBJECT_ID": "2025-268AC", "EPOCH": "2025-12-10T04:00:01.998720", "MEAN_MOTION": 15.50659868, "ECCENTRICITY": 0.0001886, "INCLINATION": 43.0006, "RA_OF_ASC_NODE": 136.1199, "ARG_OF_PERICENTER": 272.2728, "MEAN_ANOMALY": 256.0728, "EPHEMERIS_TYPE": 0, "CLASSIFICATION_TYPE": "U", "NORAD_CAT_ID": 66583, "ELEMENT_SET_NO": 999, "REV_AT_EPOCH": 425, "BSTAR": -0.003297, "MEAN_MOTION_DOT": -0.00189705, "MEAN_MOTION_DDOT": 0}, "tle": {"line1": "1 66583U 25268AC  25344.16668980 -.00189705  00000+0 -32970-2 0  9997", "line2": "2 66583  43.0006 136.1199 0001886 272.2728 256.0728 15.50659868  4250"}}, "geometry": {"type": "Point", "coordinates": [-100.89952664559252, 37.54533931310243]}}, {"type": "Feature", "properties": {"norad_id": 66584, "name": "STARLINK-35939", "group": "last-30-days", "lat": 36.7835609876485, "lon": -98.68837379147159, "alt_km": 410.4585696996046, "timestamp": "2025-12-10T09:57:43.489569+00:00", "meta": {"OBJECT_NAME": "STARLINK-35939", "OBJECT_ID": "2025-268AD", "EPOCH": "2025-12-10T04:00:01.998720", "MEAN_MOTION": 15.50607904, "ECCENTRICITY": 0.0001897, "INCLINATION": 43.0007, "RA_OF_ASC_NODE": 136.116, "ARG_OF_PERICENTER": 270.0886, "MEAN_ANOMALY": 260.2138, "EPHEMERIS_TYPE": 0, "CLASSIFICATION_TYPE": "U", "NORAD_CAT_ID": 66584, "ELEMENT_SET_NO": 999, "REV_AT_EPOCH": 425, "BSTAR": -0.0024402, "MEAN_MOTION_DOT": -0.00141101, "MEAN_MOTION_DDOT": 0}, "tle": {"line1": "1 66584U 25268AD  25344.16668980 -.00141101  00000+0 -24402-2 0  9997", "line2": "2 66584  43.0007 136.1160 0001897 270.0886 260.2138 15.50607904  4259"}}, "geometry": {"type": "Point", "coordinates": [-98.68837379147159, 36.7835609876485]}}, {"type": "Feature", "properties": {"norad_id": 66585, "name": "STARLINK-35963", "group": "last-30-days", "lat": 35.9883265702834, "lon": -96.54065092310917, "alt_km": 410.4652145535965, "timestamp": "2025-12-10T09:57:43.489580+00:00", "meta": {"OBJECT_NAME": "STARLINK-35963", "OBJECT_ID": "2025-268AE", "EPOCH": "2025-12-10T04:00:01.998720", "MEAN_MOTION": 15.50602648, "ECCENTRICITY": 0.0001711, "INCLINATION": 43.0007, "RA_OF_ASC_NODE": 136.1115, "ARG_OF_PERICENTER": 274.8024, "MEAN_ANOMALY": 257.4001, "EPHEMERIS_TYPE": 0, "CLASSIFICATION_TYPE": "U", "NORAD_CAT_ID": 66585, "ELEMENT_SET_NO": 999, "REV_AT_EPOCH": 425, "BSTAR": -0.001925, "MEAN_MOTION_DOT": -0.00111769, "MEAN_MOTION_DDOT": 0}, "tle": {"line1": "1 66585U 25268AE  25344.16668980 -.00111769  00000+0 -19250-2 0  9990", "line2": "2 66585  43.0007 136.1115 0001711 274.8024 257.4001 15.50602648  4258"}}, "geometry": {"type": "Point", "coordinates": [-96.54065092310917, 35.9883265702834]}}, {"type": "Feature", "properties": {"norad_id": 66586, "name": "TJS-21", "group": "last-30-days", "lat": 62.217417379681144, "lon": -124.30746553361878, "alt_km": 37434.66799178156, "timestamp": "2025-12-10T09:57:43.489592+00:00", "meta": {"OBJECT_NAME": "TJS-21", "OBJECT_ID": "2025-269A", "EPOCH": "2025-12-09T17:35:27.978144", "MEAN_MOTION": 2.00565752, "ECCENTRICITY": 0.6805657, "INCLINATION": 63.268, "RA_OF_ASC_NODE": 162.6671, "ARG_OF_PERICENTER": 269.7843, "MEAN_ANOMALY": 18.6559, "EPHEMERIS_TYPE": 0, "CLASSIFICATION_TYPE": "U", "NORAD_CAT_ID": 66586, "ELEMENT_SET_NO": 999, "REV_AT_EPOCH": 37, "BSTAR": -0.041607, "MEAN_MOTION_DOT": 1.08e-05, "MEAN_MOTION_DDOT": 0}, "tle": {"line1": "1 66586U 25269A   25343.73296271  .00001080  00000+0 -41607-1 0  9997", "line2": "2 66586  63.2680 162.6671 6805657 269.7843  18.6559  2.00565752   379"}}, "geometry": {"type": "Point", "coordinates": [-124.30746553361878, 62.217417379681144]}}, {"type": "Feature", "properties": {"norad_id": 66587, "name": "CZ-3B R/B", "group": "last-30-days", "lat": 23.513615757243816, "lon": -169.46619412520423, "alt_km": 34053.94809864091, "timestamp": "2025-12-10T09:57:43.489606+00:00", "meta": {"OBJECT_NAME": "CZ-3B R/B", "OBJECT_ID": "2025-269B", "EPOCH": "2025-12-08T20:16:41.011104", "MEAN_MOTION": 2.02868797, "ECCENTRICITY": 0.7519772, "INCLINATION": 51.3469, "RA_OF_ASC_NODE": 170.5472, "ARG_OF_PERICENTER": 228.0184, "MEAN_ANOMALY": 37.9661, "EPHEMERIS_TYPE": 0, "CLASSIFICATION_TYPE": "U", "NORAD_CAT_ID": 66587, "ELEMENT_SET_NO": 999, "REV_AT_EPOCH": 37, "BSTAR": 0.0012608, "MEAN_MOTION_DOT": 0.00050405, "MEAN_MOTION_DDOT": 4.221e-07}, "tle": {"line1": "1 66587U 25269B   25342.84491911  .00050405  42210-6  12608-2 0  9997", "line2": "2 66587  51.3469 170.5472 7519772 228.0184  37.9661  2.02868797   372"}}, "geometry": {"type": "Point", "coordinates": [-169.46619412520423, 23.513615757243816]}}, {"type": "Feature", "properties": {"norad_id": 66588, "name": "STARLINK-36076", "group": "last-30-days", "lat": -3.6354906707114476, "lon": -157.57519919009036, "alt_km": 411.5892040737708, "timestamp": "2025-12-10T09:57:43.489622+00:00", "meta": {"OBJECT_NAME": "STARLINK-36076", "OBJECT_ID": "2025-270A", "EPOCH": "2025-12-10T04:00:01.998720", "MEAN_MOTION": 15.52901539, "ECCENTRICITY": 0.0001672, "INCLINATION": 42.9998, "RA_OF_ASC_NODE": 207.7917, "ARG_OF_PERICENTER": 265.0805, "MEAN_ANOMALY": 139.7969, "EPHEMERIS_TYPE": 0, "CLASSIFICATION_TYPE": "U", "NORAD_CAT_ID": 66588, "ELEMENT_SET_NO": 999, "REV_AT_EPOCH": 398, "BSTAR": -0.033295, "MEAN_MOTION_DOT": -0.01875149, "MEAN_MOTION_DDOT": 0}, "tle": {"line1": "1 66588U 25270A   25344.16668980 -.01875149  00000+0 -33295-1 0  9990", "line2": "2 66588  42.9998 207.7917 0001672 265.0805 139.7969 15.52901539  3985"}}, "geometry": {"type": "Point", "coordinates": [-157.57519919009036, -3.6354906707114476]}}]}